[{"OBJECT_NAME":"SAUDISAT 3","OBJECT_ID":"2007-012B","EPOCH":"2026-03-09T20:05:49.413408","MEAN_MOTION":14.71354049,"ECCENTRICITY":0.00145843,"INCLINATION":98.1349,"RA_OF_ASC_NODE":19.2397,"ARG_OF_PERICENTER":178.409,"MEAN_ANOMALY":181.7165,"EPHEMERIS_TYPE":0,"CLASSIFICATION_TYPE":"U","NORAD_CAT_ID":31118,"ELEMENT_SET_NO":999,"REV_AT_EPOCH":1313,"BSTAR":8.9295518e-5,"MEAN_MOTION_DOT":5.02e-6,"MEAN_MOTION_DDOT":0},{"OBJECT_NAME":"FENGYUN 1C DEB","OBJECT_ID":"1999-025EEA","EPOCH":"2026-03-08T14:09:58.603104","MEAN_MOTION":14.79058991,"ECCENTRICITY":0.00515298,"INCLINATION":98.5873,"RA_OF_ASC_NODE":197.894,"ARG_OF_PERICENTER":121.6387,"MEAN_ANOMALY":238.9865,"EPHEMERIS_TYPE":0,"CLASSIFICATION_TYPE":"U","NORAD_CAT_ID":37042,"ELEMENT_SET_NO":999,"REV_AT_EPOCH":74065,"BSTAR":0.004504859,"MEAN_MOTION_DOT":0.00034175,"MEAN_MOTION_DDOT":0}]
